NORAD_CAT_ID,OBJECT_NAME,OBJECT_TYPE,EPOCH,MEAN_MOTION,ECCENTRICITY,INCLINATION,RA_OF_ASC_NODE,ARG_OF_PERICENTER,MEAN_ANOMALY,BSTAR,MEAN_MOTION_DOT,MEAN_MOTION_DDOT,TLE_LINE0,TLE_LINE1,TLE_LINE2,SEMIMAJOR_AXIS,PERIOD,APOGEE,PERIGEE,DECAYED
55946.0,STARLINK-5857,PAYLOAD,2023-08-30 00:13:56,14.98329754,0.000298,69.9985,90.7769,270.0753,90.0065,4.247e-06,-4.2e-07,0.0,0 STARLINK-5857,1 55946U 23037AJ  23242.00968702 -.00000042  00000-0  42470-5 0  9998,2 55946  69.9985  90.7769 0002980 270.0753  90.0065 14.98329754 26110,6950.194,96.107,574.13,569.987,0.0
55946.0,STARLINK-5857,PAYLOAD,2023-08-30 16:15:17,14.98332011,0.0002982,69.9985,89.0936,270.2091,89.8726,1.1796e-05,4.8e-07,0.0,0 STARLINK-5857,1 55946U 23037AJ  23242.67728450  .00000048  00000-0  11796-4 0  9996,2 55946  69.9985  89.0936 0002982 270.2091  89.8726 14.98332011 25878,6950.187,96.107,574.124,569.979,0.0
55946.0,STARLINK-5857,PAYLOAD,2023-09-01 00:17:58,14.9832956,0.0003084,69.9983,85.7267,271.9839,88.0966,-1.4996e-06,-1.11e-06,0.0,0 STARLINK-5857,1 55946U 23037AJ  23244.01248526 -.00000111  00000-0 -14996-5 0  9996,2 55946  69.9983  85.7267 0003084 271.9839  88.0966 14.98329560 26411,6950.194,96.107,574.203,569.916,0.0
55946.0,STARLINK-5857,PAYLOAD,2023-09-01 06:42:30,14.98330551,0.0003048,69.9984,85.053,271.2064,88.8746,-5.2545e-06,-1.56e-06,0.0,0 STARLINK-5857,1 55946U 23037AJ  23244.27952466 -.00000156  00000-0 -52545-5 0  9990,2 55946  69.9984  85.0530 0003048 271.2064  88.8746 14.98330551 26114,6950.191,96.107,574.175,569.938,0.0
55946.0,STARLINK-5857,PAYLOAD,2023-09-01 17:55:27,14.98332683,0.0002984,69.9984,83.8751,270.2537,89.828,2.6934e-05,2.28e-06,0.0,0 STARLINK-5857,1 55946U 23037AJ  23244.74684202  .00000228  00000-0  26934-4 0  9992,2 55946  69.9984  83.8751 0002984 270.2537  89.8280 14.98332683 26186,6950.185,96.107,574.124,569.976,0.0
55946.0,STARLINK-5857,PAYLOAD,2023-09-02 06:44:31,14.9833029,0.0003023,69.9984,82.5283,271.3104,88.7709,-7.134e-06,-1.78e-06,0.0,0 STARLINK-5857,1 55946U 23037AJ  23245.28092334 -.00000178  00000-0 -71340-5 0  9999,2 55946  69.9984  82.5283 0003023 271.3104  88.7709 14.98330290 26602,6950.192,96.107,574.158,569.956,0.0
55946.0,STARLINK-5857,PAYLOAD,2023-09-02 13:09:04,14.98328487,0.0002967,69.9985,81.8538,271.2186,88.8633,-3.0362e-05,-4.55e-06,0.0,0 STARLINK-5857,1 55946U 23037AJ  23245.54796578 -.00000455  00000-0 -30362-4 0  9995,2 55946  69.9985  81.8538 0002967 271.2186  88.8633 14.98328487 26302,6950.198,96.107,574.125,570.0,0.0
55946.0,STARLINK-5857,PAYLOAD,2023-09-02 19:33:36,14.9832811,0.0003126,69.9989,81.181,270.7771,89.303,-2.4492e-05,-3.85e-06,0.0,0 STARLINK-5857,1 55946U 23037AJ  23245.81500525 -.00000385  00000-0 -24492-4 0  9999,2 55946  69.9989  81.1810 0003126 270.7771  89.3030 14.98328110 26348,6950.199,96.107,574.236,569.891,0.0
55946.0,STARLINK-5857,PAYLOAD,2023-09-03 06:46:32,14.98327754,0.0003174,69.9992,80.0034,270.5014,89.5781,-1.7717e-05,-3.04e-06,0.0,0 STARLINK-5857,1 55946U 23037AJ  23246.28232524 -.00000304  00000-0 -17717-4 0  9995,2 55946  69.9992  80.0034 0003174 270.5014  89.5781 14.98327754 26752,6950.2,96.107,574.271,569.859,0.0
55946.0,STARLINK-5857,PAYLOAD,2023-09-04 00:24:01,14.98331386,0.0003056,69.9993,78.1515,271.6806,88.4003,7.6249e-07,-8.4e-07,0.0,0 STARLINK-5857,1 55946U 23037AJ  23247.01668318 -.00000084  00000-0  76249-6 0  9992,2 55946  69.9993  78.1515 0003056 271.6806  88.4003 14.98331386 26521,6950.189,96.107,574.178,569.93,0.0
55946.0,STARLINK-5857,PAYLOAD,2023-09-04 14:49:14,14.98326996,0.0003086,69.9993,76.6367,271.4888,88.5918,3.2161e-05,2.91e-06,0.0,0 STARLINK-5857,1 55946U 23037AJ  23247.61752491  .00000291  00000-0  32161-4 0  9996,2 55946  69.9993  76.6367 0003086 271.4888  88.5918 14.98326996 26954,6950.202,96.107,574.212,569.922,0.0
55946.0,STARLINK-5857,PAYLOAD,2023-09-04 21:13:46,14.98328651,0.0003054,69.9998,75.9635,271.2308,88.8501,2.5772e-05,2.14e-06,0.0,0 STARLINK-5857,1 55946U 23037AJ  23247.88456437  .00000214  00000-0  25772-4 0  9991,2 55946  69.9998  75.9635 0003054 271.2308  88.8501 14.98328651 26657,6950.197,96.107,574.185,569.939,0.0
55946.0,STARLINK-5857,PAYLOAD,2023-09-05 22:51:55,14.98332902,0.0003065,69.9999,73.2705,270.9716,89.1091,2.079e-05,1.55e-06,0.0,0 STARLINK-5857,1 55946U 23037AJ  23248.95272082  .00000155  00000-0  20790-4 0  9991,2 55946  69.9999  73.2705 0003065 270.9716  89.1091 14.98332902 27156,6950.184,96.107,574.179,569.919,0.0
55946.0,STARLINK-5857,PAYLOAD,2023-09-06 11:40:59,14.98329854,0.0003052,69.9999,71.9238,269.3461,90.7349,-6.423e-06,-1.7e-06,0.0,0 STARLINK-5857,1 55946U 23037AJ  23249.48680272 -.00000170  00000-0 -64230-5 0  9991,2 55946  69.9999  71.9238 0003052 269.3461  90.7349 14.98329854 26893,6950.193,96.107,574.18,569.937,0.0
55946.0,STARLINK-5857,PAYLOAD,2023-09-06 22:53:56,14.98330864,0.0002975,70.0,70.7454,268.8932,91.1887,1.3815e-05,7.2e-07,0.0,0 STARLINK-5857,1 55946U 23037AJ  23249.95412119  .00000072  00000-0  13815-4 0  9997,2 55946  70.0000  70.7454 0002975 268.8932  91.1887 14.98330864 27308,6950.19,96.107,574.123,569.988,0.0
55946.0,STARLINK-5857,PAYLOAD,2023-09-07 11:43:00,14.98329659,0.000291,69.9998,69.3983,270.0904,89.9922,-2.6081e-05,-4.04e-06,0.0,0 STARLINK-5857,1 55946U 23037AJ  23250.48820283 -.00000404  00000-0 -26081-4 0  9992,2 55946  69.9998  69.3983 0002910 270.0904  89.9922 14.98329659 27041,6950.194,96.107,574.081,570.036,0.0
55946.0,STARLINK-5857,PAYLOAD,2023-09-07 18:07:32,14.98330991,0.0002936,69.9998,68.7251,269.5478,90.5345,-1.3597e-05,-2.55e-06,0.0,0 STARLINK-5857,1 55946U 23037AJ  23250.75524128 -.00000255  00000-0 -13597-4 0  9993,2 55946  69.9998  68.7251 0002936 269.5478  90.5345 14.98330991 27081,6950.19,96.107,574.095,570.014,0.0
55946.0,STARLINK-5857,PAYLOAD,2023-09-08 05:20:29,14.98328541,0.0002992,69.998,67.5467,269.733,90.3486,-1.9207e-05,-3.22e-06,0.0,0 STARLINK-5857,1 55946U 23037AJ  23251.22256280 -.00000322  00000-0 -19207-4 0  9996,2 55946  69.9980  67.5467 0002992 269.7330  90.3486 14.98328541 27496,6950.197,96.107,574.142,569.983,0.0
55946.0,STARLINK-5857,PAYLOAD,2023-09-08 13:21:09,14.98328502,0.0003006,69.9983,66.705,269.5384,90.5431,-1.1601e-05,-2.31e-06,0.0,0 STARLINK-5857,1 55946U 23037AJ  23251.55636267 -.00000231  00000-0 -11601-4 0  9998,2 55946  69.9983  66.7050 0003006 269.5384  90.5431 14.98328502 27200,6950.198,96.107,574.152,569.973,0.0
55946.0,STARLINK-5857,PAYLOAD,2023-09-08 18:09:34,14.98328021,0.0003063,70.0001,66.2002,269.5934,90.4874,-3.5191e-05,-5.13e-06,0.0,0 STARLINK-5857,1 55946U 23037AJ  23251.75664386 -.00000513  00000-0 -35191-4 0  9996,2 55946  70.0001  66.2002 0003063 269.5934  90.4874 14.98328021 27239,6950.199,96.107,574.193,569.935,0.0
55946.0,STARLINK-5857,PAYLOAD,2023-09-09 10:10:54,14.9833003,0.0003091,70.0,64.5165,269.5911,90.4894,1.8556e-05,1.28e-06,0.0,0 STARLINK-5857,1 55946U 23037AJ  23252.42424097  .00000128  00000-0  18556-4 0  9990,2 55946  70.0000  64.5165 0003091 269.5911  90.4894 14.98330030 27678,6950.193,96.107,574.206,569.909,0.0
55946.0,STARLINK-5857,PAYLOAD,2023-09-09 13:23:10,14.98329412,0.0003115,69.9999,64.1798,269.5109,90.5693,2.7664e-05,2.37e-06,0.0,0 STARLINK-5857,1 55946U 23037AJ  23252.55776092  .00000237  00000-0  27664-4 0  9990,2 55946  69.9999  64.1798 0003115 269.5109  90.5693 14.98329412 27351,6950.195,96.107,574.225,569.895,0.0
55946.0,STARLINK-5857,PAYLOAD,2023-09-10 13:25:11,14.98330134,0.0003078,70.0002,61.6549,270.0091,90.0715,2.2299e-05,1.73e-06,0.0,0 STARLINK-5857,1 55946U 23037AJ  23253.55915982  .00000173  00000-0  22299-4 0  9992,2 55946  70.0002  61.6549 0003078 270.0091  90.0715 14.98330134 27500,6950.192,96.107,574.197,569.918,0.0
55946.0,STARLINK-5857,PAYLOAD,2023-09-10 19:49:43,14.9833004,0.0003132,70.0003,60.9819,270.5504,89.5296,1.3963e-05,7.4e-07,0.0,0 STARLINK-5857,1 55946U 23037AJ  23253.82620001  .00000074  00000-0  13963-4 0  9995,2 55946  70.0003  60.9819 0003132 270.5504  89.5296 14.98330040 27882,6950.193,96.107,574.235,569.881,0.0
55946.0,STARLINK-5857,PAYLOAD,2023-09-11 13:27:12,14.98330102,0.0003139,70.0005,59.1304,270.5885,89.4914,-1.3801e-05,-2.58e-06,0.0,0 STARLINK-5857,1 55946U 23037AJ  23254.56055999 -.00000258  00000-0 -13801-4 0  9992,2 55946  70.0005  59.1304 0003139 270.5885  89.4914 14.98330102 27652,6950.193,96.107,574.239,569.876,0.0
55946.0,STARLINK-5857,PAYLOAD,2023-09-11 19:51:44,14.98331357,0.0002868,70.0005,58.4571,267.4089,92.6742,2.8038e-05,2.42e-06,0.0,0 STARLINK-5857,1 55946U 23037AJ  23254.82759795  .00000242  00000-0  28038-4 0  9995,2 55946  70.0005  58.4571 0002868 267.4089  92.6742 14.98331357 28030,6950.189,96.107,574.047,570.06,0.0
55946.0,STARLINK-5857,PAYLOAD,2023-09-12 13:29:13,14.98327786,0.0003072,70.0007,56.6057,271.8305,88.2502,-3.4728e-05,-5.07e-06,0.0,0 STARLINK-5857,1 55946U 23037AJ  23255.56196120 -.00000507  00000-0 -34728-4 0  9993,2 55946  70.0007  56.6057 0003072 271.8305  88.2502 14.98327786 27809,6950.2,96.107,574.2,569.93,0.0
55946.0,STARLINK-5857,PAYLOAD,2023-09-12 19:53:45,14.98329489,0.0003001,70.0009,55.9331,267.9575,92.1241,1.6618e-05,1.05e-06,0.0,0 STARLINK-5857,1 55946U 23037AJ  23255.82899861  .00000105  00000-0  16618-4 0  9994,2 55946  70.0009  55.9331 0003001 267.9575  92.1241 14.98329489 27845,6950.194,96.107,574.145,569.974,0.0
55946.0,STARLINK-5857,PAYLOAD,2023-09-13 13:31:13,14.9833496,0.0002999,70.0008,54.0816,267.1147,92.9668,4.1489e-05,4.02e-06,0.0,0 STARLINK-5857,1 55946U 23037AJ  23256.56335280  .00000402  00000-0  41489-4 0  9990,2 55946  70.0008  54.0816 0002999 267.1147  92.9668 14.98334960 27957,6950.178,96.107,574.127,569.958,0.0
55946.0,STARLINK-5857,PAYLOAD,2023-09-13 18:19:37,14.98336503,0.000297,70.0008,53.5762,268.2758,91.8061,6.1755e-05,6.44e-06,0.0,0 STARLINK-5857,1 55946U 23037AJ  23256.76363063  .00000644  00000-0  61755-4 0  9998,2 55946  70.0008  53.5762 0002970 268.2758  91.8061 14.98336503 28322,6950.173,96.107,574.102,569.974,0.0
